QIANFAN-9               
1 60387U 24140J   25326.46484378  .00000063  00000+0  79355-4 0  9998
2 60387  88.9743 301.4365 0014296 255.8427 104.1136 13.50977769 64596
QIANFAN-10              
1 60388U 24140K   25326.39497076  .00000055  00000+0  66045-4 0  9993
2 60388  88.9753 300.7888 0012995 230.0506 129.9505 13.50978458 64712
QIANFAN-11              
1 60389U 24140L   25326.35794238  .00000050  00000+0  59101-4 0  9990
2 60389  88.9678 301.3952 0012335 255.7108 104.2674 13.50974619 64367
QIANFAN-12              
1 60390U 24140M   25326.45251634  .00000057  00000+0  69364-4 0  9990
2 60390  88.9722 301.4199 0011139 265.0693  94.9186 13.50975284 64505
QIANFAN-13              
1 60391U 24140N   25326.34965708  .00000055  00000+0  66742-4 0  9998
2 60391  88.9734 301.5280 0010974 268.5519  91.4375 13.50975754 64517
QIANFAN-14              
1 60392U 24140P   25326.44830660  .00000068  00000+0  86121-4 0  9995
2 60392  88.9713 301.4197 0014667 267.7981  92.1491 13.50975506 64532
QIANFAN-15              
1 60393U 24140Q   25326.45657602  .00000055  00000+0  66596-4 0  9990
2 60393  88.9736 301.3705 0010465 251.7797 108.2215 13.50974147 64524
QIANFAN-16              
1 60394U 24140R   25326.44438063  .00000066  00000+0  83759-4 0  9990
2 60394  88.9739 301.4913 0012622 272.4647  87.5059 13.50974387 64432
